{"fetched_at":"2026-07-12T05:53:07.478Z","source":"https://celestrak.org/NORAD/elements/gp.php?NAME=O3B&FORMAT=JSON","constellation":"o3b-mpower","records":[{"OBJECT_NAME":"O3B MPOWER F1","OBJECT_ID":"2022-174A","EPOCH":"2026-07-11T20:23:32.683776","CLASSIFICATION_TYPE":"U","MEAN_MOTION":5.00114743,"ECCENTRICITY":0.0006611,"INCLINATION":0.0496,"RA_OF_ASC_NODE":339.5534,"ARG_OF_PERICENTER":141.9511,"MEAN_ANOMALY":94.1017,"EPHEMERIS_TYPE":0,"NORAD_CAT_ID":54755,"ELEMENT_SET_NO":999,"REV_AT_EPOCH":6659,"BSTAR":0,"MEAN_MOTION_DOT":-1.6e-7,"MEAN_MOTION_DDOT":0},{"OBJECT_NAME":"O3B MPOWER F3","OBJECT_ID":"2023-059B","EPOCH":"2026-07-11T19:03:29.134080","CLASSIFICATION_TYPE":"U","MEAN_MOTION":5.00116403,"ECCENTRICITY":0.0006679,"INCLINATION":0.0637,"RA_OF_ASC_NODE":349.762,"ARG_OF_PERICENTER":117.4429,"MEAN_ANOMALY":252.8671,"EPHEMERIS_TYPE":0,"NORAD_CAT_ID":56368,"ELEMENT_SET_NO":999,"REV_AT_EPOCH":5595,"BSTAR":0,"MEAN_MOTION_DOT":-1.6e-7,"MEAN_MOTION_DDOT":0},{"OBJECT_NAME":"O3B MPOWER F5","OBJECT_ID":"2023-175A","EPOCH":"2026-07-11T16:41:04.447104","CLASSIFICATION_TYPE":"U","MEAN_MOTION":5.00115849,"ECCENTRICITY":0.0005461,"INCLINATION":0.0518,"RA_OF_ASC_NODE":9.4242,"ARG_OF_PERICENTER":118.9165,"MEAN_ANOMALY":231.7074,"EPHEMERIS_TYPE":0,"NORAD_CAT_ID":58346,"ELEMENT_SET_NO":999,"REV_AT_EPOCH":5066,"BSTAR":0,"MEAN_MOTION_DOT":-1.5e-7,"MEAN_MOTION_DDOT":0},{"OBJECT_NAME":"O3B MPOWER F6","OBJECT_ID":"2023-175B","EPOCH":"2026-07-11T19:05:45.557952","CLASSIFICATION_TYPE":"U","MEAN_MOTION":5.0011574,"ECCENTRICITY":0.0004437,"INCLINATION":0.0538,"RA_OF_ASC_NODE":1.0687,"ARG_OF_PERICENTER":107.6883,"MEAN_ANOMALY":251.2901,"EPHEMERIS_TYPE":0,"NORAD_CAT_ID":58347,"ELEMENT_SET_NO":999,"REV_AT_EPOCH":4957,"BSTAR":0,"MEAN_MOTION_DOT":-1.6e-7,"MEAN_MOTION_DDOT":0},{"OBJECT_NAME":"O3B MPOWER F8","OBJECT_ID":"2024-244B","EPOCH":"2026-07-11T10:18:05.539392","CLASSIFICATION_TYPE":"U","MEAN_MOTION":5.00115042,"ECCENTRICITY":0.00057859,"INCLINATION":0.0143,"RA_OF_ASC_NODE":359.452,"ARG_OF_PERICENTER":99.2663,"MEAN_ANOMALY":261.3465,"EPHEMERIS_TYPE":0,"NORAD_CAT_ID":62363,"ELEMENT_SET_NO":999,"REV_AT_EPOCH":2208,"BSTAR":0,"MEAN_MOTION_DOT":-1.5e-7,"MEAN_MOTION_DDOT":0},{"OBJECT_NAME":"O3B MPOWER F9","OBJECT_ID":"2025-153A","EPOCH":"2026-07-11T18:17:51.240768","CLASSIFICATION_TYPE":"U","MEAN_MOTION":5.00115633,"ECCENTRICITY":0.0006691,"INCLINATION":0.061,"RA_OF_ASC_NODE":6.0465,"ARG_OF_PERICENTER":122.9049,"MEAN_ANOMALY":231.1071,"EPHEMERIS_TYPE":0,"NORAD_CAT_ID":64866,"ELEMENT_SET_NO":999,"REV_AT_EPOCH":2079,"BSTAR":0,"MEAN_MOTION_DOT":-1.6e-7,"MEAN_MOTION_DDOT":0},{"OBJECT_NAME":"O3B MPOWER F10","OBJECT_ID":"2025-153B","EPOCH":"2026-07-11T17:28:57.692928","CLASSIFICATION_TYPE":"U","MEAN_MOTION":5.0011486,"ECCENTRICITY":0.0002347,"INCLINATION":0.0581,"RA_OF_ASC_NODE":2.5723,"ARG_OF_PERICENTER":245.4177,"MEAN_ANOMALY":111.984,"EPHEMERIS_TYPE":0,"NORAD_CAT_ID":64867,"ELEMENT_SET_NO":999,"REV_AT_EPOCH":2326,"BSTAR":0,"MEAN_MOTION_DOT":-1.6e-7,"MEAN_MOTION_DDOT":0}]}
