O3B MPOWER F1           
1 54755U 22174A   26192.84968385 -.00000016  00000+0  00000+0 0  9999
2 54755   0.0496 339.5534 0006611 141.9511  94.1017  5.00114743 66598
O3B MPOWER F3           
1 56368U 23059B   26192.79408720 -.00000016  00000+0  00000+0 0  9990
2 56368   0.0637 349.7620 0006678 117.4429 252.8671  5.00116403 55957
O3B MPOWER F5           
1 58346U 23175A   26192.69519036 -.00000015  00000+0  00000+0 0  9998
2 58346   0.0518   9.4242 0005461 118.9165 231.7074  5.00115849 50664
O3B MPOWER F6           
1 58347U 23175B   26192.79566619 -.00000016  00000+0  00000+0 0  9990
2 58347   0.0538   1.0687 0004436 107.6883 251.2901  5.00115740 49575
O3B MPOWER F8           
1 62363U 24244B   26192.42923078 -.00000015  00000+0  00000+0 0  9996
2 62363   0.0143 359.4520 0005785  99.2663 261.3465  5.00115042 22085
O3B MPOWER F9           
1 64866U 25153A   26192.76239863 -.00000016  00000+0  00000+0 0  9996
2 64866   0.0610   6.0465 0006691 122.9049 231.1071  5.00115633 20796
O3B MPOWER F10          
1 64867U 25153B   26192.72844553 -.00000016  00000+0  00000+0 0  9991
2 64867   0.0581   2.5723 0002346 245.4177 111.9840  5.00114860 23263
